[{"OBJECT_NAME":"FALCON EYE 2","OBJECT_ID":"2020-090A","EPOCH":"2026-03-09T02:26:19.073760","MEAN_MOTION":14.84956326,"ECCENTRICITY":0.00011533,"INCLINATION":97.8521,"RA_OF_ASC_NODE":144.2551,"ARG_OF_PERICENTER":93.9066,"MEAN_ANOMALY":266.228,"EPHEMERIS_TYPE":0,"CLASSIFICATION_TYPE":"U","NORAD_CAT_ID":47226,"ELEMENT_SET_NO":999,"REV_AT_EPOCH":28538,"BSTAR":0.0002554448,"MEAN_MOTION_DOT":2.123e-5,"MEAN_MOTION_DDOT":0},{"OBJECT_NAME":"SL-8 R\/B","OBJECT_ID":"1990-078B","EPOCH":"2026-03-09T21:52:42.731616","MEAN_MOTION":14.89068601,"ECCENTRICITY":0.03622553,"INCLINATION":82.9007,"RA_OF_ASC_NODE":251.1111,"ARG_OF_PERICENTER":13.2503,"MEAN_ANOMALY":347.792,"EPHEMERIS_TYPE":0,"CLASSIFICATION_TYPE":"U","NORAD_CAT_ID":20775,"ELEMENT_SET_NO":999,"REV_AT_EPOCH":80933,"BSTAR":0.00056464849,"MEAN_MOTION_DOT":0.0001918,"MEAN_MOTION_DDOT":0}]
